Unnamed: 0,NORAD_CAT_ID,OBJECT_NAME,EPOCH,MEAN_MOTION,ECCENTRICITY,INCLINATION,RA_OF_ASC_NODE,ARG_OF_PERICENTER,MEAN_ANOMALY,BSTAR,MEAN_MOTION_DOT,MEAN_MOTION_DDOT,TLE_LINE1,TLE_LINE2,SEMIMAJOR_AXIS,PERIOD,APOGEE,PERIGEE,alltitude
3131259,48481,STARLINK-2706,2022-07-09 17:03:14.925888,15.06392704,0.0001937,53.0549,92.813,70.9244,289.1954,-0.00012732,-2.177e-05,0,1 48481U 21040BF  22190.71058942 -.00002177  00000-0 -12732-3 0  9999,2 48481  53.0549  92.8130 0001937  70.9244 289.1954 15.06392704 64524,6925.371,95.593,548.577,545.894,547.6796803160069
3131258,48481,STARLINK-2706,2022-07-09 17:03:14.925888,15.06392704,0.0001937,53.0549,92.813,70.9244,289.1954,-0.00012732,-2.177e-05,0,1 48481U 21040BF  22190.71058942 -.00002177  00000-0 -12732-3 0  9999,2 48481  53.0549  92.8130 0001937  70.9244 289.1954 15.06392704 65806,6925.371,95.593,548.577,545.894,547.6796803160069
3127946,48481,STARLINK-2706,2022-07-09 10:41:03.984000,15.06410408,0.0002059,53.0555,94.0054,68.5563,291.5645,0.00011527,1.436e-05,0,1 48481U 21040BF  22190.44518500  .00001436  00000-0  11527-3 0  9996,2 48481  53.0555  94.0054 0002059  68.5563 291.5645 15.06410408 64484,6925.317,95.591,548.608,545.756,547.5429990934629
3123943,48481,STARLINK-2706,2022-07-08 18:45:40.681440,15.06410145,0.0002008,53.0554,96.9833,70.8143,289.3063,0.00018038,2.407e-05,0,1 48481U 21040BF  22189.78172085  .00002407  00000-0  18038-3 0  9998,2 48481  53.0554  96.9833 0002008  70.8143 289.3063 15.06410145 64389,6925.317,95.591,548.573,545.792,547.6056822793608
3121791,48481,STARLINK-2706,2022-07-08 12:23:30.861024,15.0642052,0.0002088,53.0555,98.1746,67.9973,292.1238,0.00019552,2.633e-05,0,1 48481U 21040BF  22189.51632941  .00002633  00000-0  19552-3 0  9994,2 48481  53.0555  98.1746 0002088  67.9973 292.1238 15.06420520 64343,6925.286,95.591,548.597,545.705,547.4905532328161
3121085,48481,STARLINK-2706,2022-07-08 10:47:58.561440,15.06420547,0.0002109,53.056,98.4724,67.6018,292.5195,0.00019079,2.563e-05,0,1 48481U 21040BF  22189.44998335  .00002563  00000-0  19079-3 0  9994,2 48481  53.0560  98.4724 0002109  67.6018 292.5195 15.06420547 65615,6925.286,95.591,548.611,545.69,547.4733127701855
3118954,48481,STARLINK-2706,2022-07-08 02:50:17.822112,15.06408781,0.0002128,53.056,99.9615,67.2141,292.9072,0.00011837,1.482e-05,0,1 48481U 21040BF  22189.11826183  .00001482  00000-0  11837-3 0  9992,2 48481  53.0560  99.9615 0002128  67.2141 292.9072 15.06408781 65562,6925.322,95.592,548.66,545.713,547.4972513909327
3116542,48481,STARLINK-2706,2022-07-07 18:52:36.814080,15.06399204,0.0002083,53.056,101.4508,66.5259,293.5949,3.619e-05,2.57e-06,0,1 48481U 21040BF  22188.78653720  .00000257  00000-0  36190-4 0  9998,2 48481  53.0560 101.4508 0002083  66.5259 293.5949 15.06399204 65518,6925.351,95.592,548.659,545.773,547.5226999957623
3112862,48481,STARLINK-2706,2022-07-07 04:32:45.883680,15.06387981,0.0002101,53.0559,104.1311,65.0788,295.0419,5.2685e-05,5.03e-06,0,1 48481U 21040BF  22188.18941995  .00000503  00000-0  52685-4 0  9997,2 48481  53.0559 104.1311 0002101  65.0788 295.0419 15.06387981 64146,6925.385,95.593,548.705,545.795,547.5191627995524
3112861,48481,STARLINK-2706,2022-07-07 04:32:45.883680,15.06387981,0.0002101,53.0559,104.1311,65.0788,295.0419,5.2685e-05,5.03e-06,0,1 48481U 21040BF  22188.18941995  .00000503  00000-0  52685-4 0  9997,2 48481  53.0559 104.1311 0002101  65.0788 295.0419 15.06387981 65428,6925.385,95.593,548.705,545.795,547.5191627995524
3110848,48481,STARLINK-2706,2022-07-06 18:59:31.113312,15.06392673,0.0002121,53.0556,105.918,63.9499,296.1708,0.00010377,1.264e-05,0,1 48481U 21040BF  22187.79133233  .00001264  00000-0  10377-3 0  9997,2 48481  53.0556 105.9180 0002121  63.9499 296.1708 15.06392673 65366,6925.371,95.593,548.705,545.767,547.4666218071426
3106280,48481,STARLINK-2706,2022-07-06 04:39:38.576736,15.0643892,0.0002064,53.0548,108.5992,63.8738,296.2463,-0.00058305,-8.965e-05,0,1 48481U 21040BF  22187.19419649 -.00008965  00000-0 -58305-3 0  9999,2 48481  53.0548 108.5992 0002064  63.8738 296.2463 15.06438920 63990,6925.229,95.59,548.524,545.665,547.3442235920983
3106279,48481,STARLINK-2706,2022-07-06 04:39:38.576736,15.0643892,0.0002064,53.0548,108.5992,63.8738,296.2463,-0.00058305,-8.965e-05,0,1 48481U 21040BF  22187.19419649 -.00008965  00000-0 -58305-3 0  9999,2 48481  53.0548 108.5992 0002064  63.8738 296.2463 15.06438920 65273,6925.229,95.59,548.524,545.665,547.3442235920983
3104143,48481,STARLINK-2706,2022-07-05 19:06:25.374528,15.06395217,0.0002156,53.056,110.3854,64.6486,295.4726,-2.7534e-05,-6.92e-06,0,1 48481U 21040BF  22186.79612702 -.00000692  00000-0 -27534-4 0  9999,2 48481  53.0560 110.3854 0002156  64.6486 295.4726 15.06395217 63931,6925.363,95.592,548.721,545.735,547.4666699903398
3104142,48481,STARLINK-2706,2022-07-05 19:06:25.374528,15.06395217,0.0002156,53.056,110.3854,64.6486,295.4726,-2.7534e-05,-6.92e-06,0,1 48481U 21040BF  22186.79612702 -.00000692  00000-0 -27534-4 0  9999,2 48481  53.0560 110.3854 0002156  64.6486 295.4726 15.06395217 65214,6925.363,95.592,548.721,545.735,547.4666699903398
3100119,48481,STARLINK-2706,2022-07-05 04:46:34.952160,15.06379605,0.0002181,53.0553,113.0658,64.8036,295.3179,-0.00012336,-2.118e-05,0,1 48481U 21040BF  22186.19901565 -.00002118  00000-0 -12336-3 0  9999,2 48481  53.0553 113.0658 0002181  64.8036 295.3179 15.06379605 63840,6925.411,95.593,548.786,545.766,547.5153444742439
3097490,48481,STARLINK-2706,2022-07-04 19:13:20.498880,15.06382717,0.0002195,53.0557,114.8541,63.9814,296.1401,-0.00019395,-3.168e-05,0,1 48481U 21040BF  22185.80093170 -.00003168  00000-0 -19395-3 0  9998,2 48481  53.0557 114.8541 0002195  63.9814 296.1401 15.06382717 63781,6925.402,95.593,548.787,545.746,547.4783950075847
3097489,48481,STARLINK-2706,2022-07-04 19:13:20.498880,15.06382717,0.0002195,53.0557,114.8541,63.9814,296.1401,-0.00019395,-3.168e-05,0,1 48481U 21040BF  22185.80093170 -.00003168  00000-0 -19395-3 0  9998,2 48481  53.0557 114.8541 0002195  63.9814 296.1401 15.06382717 65064,6925.402,95.593,548.787,545.746,547.4783950075847
3093262,48481,STARLINK-2706,2022-07-04 01:42:22.701312,15.06401374,0.0002298,53.0558,118.1295,64.1511,295.9715,1.3242e-05,-8.5e-07,0,1 48481U 21040BF  22185.07109608 -.00000085  00000-0  13242-4 0  9991,2 48481  53.0558 118.1295 0002298  64.1511 295.9715 15.06401374 63670,6925.344,95.592,548.801,545.618,547.3957279272997
3091115,48481,STARLINK-2706,2022-07-03 19:20:12.904224,15.06406833,0.0002289,53.0557,119.321,64.0261,296.0963,6.4329e-05,6.77e-06,0,1 48481U 21040BF  22184.80570491  .00000677  00000-0  64329-4 0  9991,2 48481  53.0557 119.3210 0002289  64.0261 296.0963 15.06406833 63638,6925.328,95.592,548.778,545.607,547.3802680921812
3089136,48481,STARLINK-2706,2022-07-03 12:58:03.816480,15.06402177,0.0002291,53.0557,120.5125,63.5704,296.552,5.7767e-05,5.79e-06,0,1 48481U 21040BF  22184.54032195  .00000579  00000-0  57767-4 0  9995,2 48481  53.0557 120.5125 0002291  63.5704 296.5520 15.06402177 63592,6925.342,95.592,548.793,545.62,547.3818881819185
3083427,48481,STARLINK-2706,2022-07-02 13:04:58.164096,15.06402683,0.0002241,53.0553,124.9799,61.2296,298.8918,0.00014805,1.924e-05,0,1 48481U 21040BF  22183.54511764  .00001924  00000-0  14805-3 0  9998,2 48481  53.0553 124.9799 0002241  61.2296 298.8918 15.06402683 63441,6925.34,95.592,548.757,545.653,547.3343413689739
3080392,48481,STARLINK-2706,2022-07-01 21:09:35.109504,15.06393447,0.0002183,53.0551,127.9582,59.3213,300.799,9.1249e-05,1.077e-05,0,1 48481U 21040BF  22182.88165636  .00001077  00000-0  91249-4 0  9994,2 48481  53.0551 127.9582 0002183  59.3213 300.7990 15.06393447 63343,6925.369,95.593,548.745,545.722,547.3379221114964
3077911,48481,STARLINK-2706,2022-07-01 13:11:53.274624,15.06394215,0.0002189,53.0552,129.4475,59.137,300.9834,5.0729e-05,4.74e-06,0,1 48481U 21040BF  22182.54992216  .00000474  00000-0  50729-4 0  9997,2 48481  53.0552 129.4475 0002189  59.1370 300.9834 15.06394215 63297,6925.366,95.593,548.747,545.715,547.3305751265427
3075751,48481,STARLINK-2706,2022-07-01 03:38:39.753600,15.06394449,0.000218,53.0553,131.2347,59.1631,300.9572,1.2256e-05,-9.9e-07,0,1 48481U 21040BF  22182.15184115 -.00000099  00000-0  12256-4 0  9992,2 48481  53.0553 131.2347 0002180  59.1631 300.9572 15.06394449 64512,6925.366,95.592,548.74,545.721,547.3320783510922
3074486,48481,STARLINK-2706,2022-06-30 21:16:29.694720,15.06392235,0.0002183,53.0549,132.4258,58.9216,301.1987,-9.6606e-06,-4.26e-06,0,1 48481U 21040BF  22181.88645480 -.00000426  00000-0 -96606-5 0  9995,2 48481  53.0549 132.4258 0002183  58.9216 301.1987 15.06392235 63197,6925.372,95.593,548.749,545.726,547.337233030249
3070522,48481,STARLINK-2706,2022-06-30 05:21:06.353280,15.06387391,0.000216,53.055,135.4041,57.3785,302.7412,-2.2736e-05,-6.2e-06,0,1 48481U 21040BF  22181.22298652 -.00000620  00000-0 -22736-4 0  9996,2 48481  53.0550 135.4041 0002160  57.3785 302.7412 15.06387391 63097,6925.387,95.593,548.748,545.756,547.3209015819167
3070240,48481,STARLINK-2706,2022-06-30 03:45:33.637248,15.06386704,0.0002181,53.0549,135.702,59.1973,300.923,-6.5398e-06,-3.79e-06,0,1 48481U 21040BF  22181.15663932 -.00000379  00000-0 -65398-5 0  9998,2 48481  53.0549 135.7020 0002181  59.1973 300.9230 15.06386704 64363,6925.389,95.593,548.765,545.744,547.3606721444546
3065221,48481,STARLINK-2706,2022-06-29 07:03:31.850496,15.06400824,0.0002164,53.0544,139.5732,61.1354,298.9852,1.0077e-05,-1.32e-06,0,1 48481U 21040BF  22180.29411864 -.00000132  00000-0  10077-4 0  9996,2 48481  53.0544 139.5732 0002164  61.1354 298.9852 15.06400824 62956,6925.346,95.592,548.71,545.712,547.3690348580419
3063606,48481,STARLINK-2706,2022-06-28 21:30:17.791200,15.06399187,0.0002156,53.0543,141.3603,59.9814,300.1389,1.7882e-05,-1.5e-07,0,1 48481U 21040BF  22179.89603925 -.00000015  00000-0  17882-4 0  9992,2 48481  53.0543 141.3603 0002156  59.9814 300.1389 15.06399187 62893,6925.351,95.592,548.709,545.723,547.3500724340146
